ONEWEB-0236             
1 48797U 21045AG  26187.72257631  .00000090  00000+0  20386-3 0  9994
2 48797  87.8991 255.3141 0002170  96.8710 263.2667 13.15547940246824
ONEWEB-0248             
1 48798U 21045AH  26187.65919055 -.00000034  00000+0 -12311-3 0  9991
2 48798  87.9003 255.3121 0002270 110.5532 249.5842 13.15549070246979
ONEWEB-0225             
1 48799U 21045AJ  26188.13771840 -.00000111  00000+0 -32762-3 0  9992
2 48799  87.8996 255.2243 0002040 115.0793 245.0549 13.15548084247046
ONEWEB-0215             
1 48800U 21045AK  26187.72732464  .00000076  00000+0  16716-3 0  9997
2 48800  87.9003 255.2896 0002156 117.6422 242.4928 13.15548898246862
ONEWEB-0216             
1 48801U 21045AL  26188.19317717  .00000083  00000+0  18659-3 0  9996
2 48801  87.9001 255.2109 0002000  97.2169 262.9189 13.15548046246936
ONEWEB-0239             
1 48802U 21045AM  26188.19793024  .00000054  00000+0  10996-3 0  9990
2 48802  87.8988 255.2144 0002456 117.0593 243.0788 13.15547750246976
ONEWEB-0249             
1 48967U 21060A   26187.58408944 -.00000021  00000+0 -88814-4 0  9996
2 48967  87.9082 224.9253 0002165  97.1179 263.0199 13.16596447242166
ONEWEB-0250             
1 48968U 21060B   26187.62727491 -.00000020  00000+0 -76686-4 0  9996
2 48968  87.9083 222.6098 0003136  94.5527 265.5968 13.25835145242798
ONEWEB-0252             
1 48970U 21060D   26187.61498796  .00000030  00000+0  45951-4 0  9991
2 48970  87.9080 224.9117 0001837  95.0582 265.0759 13.16594936242218
ONEWEB-0253             
1 48971U 21060E   26187.60390618  .00000027  00000+0  35768-4 0  9996
2 48971  87.9078 224.9194 0002167  96.6238 263.5140 13.16594853242140
ONEWEB-0254             
1 48972U 21060F   26188.06938679 -.00000031  00000+0 -11407-3 0  9993
2 48972  87.9082 224.8248 0002229 102.4404 257.6977 13.16593224242205
ONEWEB-0255             
1 48973U 21060G   26188.03138715  .00000045  00000+0  85176-4 0  9992
2 48973  87.9083 224.8385 0002110  99.7646 260.3724 13.16593958242276
ONEWEB-0256             
1 48974U 21060H   26187.60153072 -.00000036  00000+0 -12854-3 0  9992
2 48974  87.9077 224.9273 0002020  91.9961 268.1402 13.16594501242185
ONEWEB-0257             
1 48975U 21060J   26187.63398459  .00000028  00000+0  39911-4 0  9999
2 48975  87.9081 224.9087 0001975  98.0506 262.0849 13.16593131242147
ONEWEB-0258             
1 48976U 21060K   26187.63556980  .00000070  00000+0  15073-3 0  9994
2 48976  87.9082 224.9206 0002120  95.8060 264.3312 13.16594077242156
ONEWEB-0259             
1 48977U 21060L   26188.08521799  .00000069  00000+0  14756-3 0  9990
2 48977  87.9079 224.8302 0002202  98.5431 261.5950 13.16593216242243
ONEWEB-0260             
1 48978U 21060M   26188.07650082  .00000036  00000+0  59320-4 0  9999
2 48978  87.9075 224.8326 0001699  89.9349 270.1977 13.16594744242227
ONEWEB-0261             
1 48979U 21060N   26187.66644570 -.00000102  00000+0 -29984-3 0  9997
2 48979  87.9080 224.9147 0001946 103.5143 256.6205 13.16593356242227
ONEWEB-0262             
1 48980U 21060P   26188.02663605  .00000094  00000+0  21170-3 0  9997
2 48980  87.9083 224.8294 0002305  98.7508 261.3884 13.16593653242231
ONEWEB-0263             
1 48981U 21060Q   26187.60231645 -.00000026  00000+0 -10269-3 0  9990
2 48981  87.9081 224.9257 0002042 104.6037 255.5321 13.16593766242148
ONEWEB-0264             
1 48982U 21060R   26188.09548984  .00000092  00000+0  20644-3 0  9991
2 48982  87.9075 224.8302 0001881  98.0786 262.0558 13.16596703242216
ONEWEB-0266             
1 48984U 21060T   26187.66089912 -.00000061  00000+0 -19315-3 0  9997
2 48984  87.9083 224.9071 0002146  92.8813 267.2564 13.16595450242143
ONEWEB-0267             
1 48985U 21060U   26187.59598684 -.00000056  00000+0 -17971-3 0  9991
2 48985  87.9082 224.9172 0001964  99.8631 260.2722 13.16593724242148
ONEWEB-0268             
1 48986U 21060V   26188.09629839  .00000079  00000+0  17367-3 0  9997
2 48986  87.9082 224.8270 0001964  92.3468 267.7888 13.16593408242473
ONEWEB-0269             
1 48987U 21060W   26188.07730062  .00000033  00000+0  53437-4 0  9996
2 48987  87.9075 224.8318 0002017  88.9366 271.1997 13.16592884242249
ONEWEB-0270             
1 48988U 21060X   26188.09471881  .00000103  00000+0  23704-3 0  9991
2 48988  87.9084 224.8295 0002223 104.0590 256.0789 13.16593725242282
ONEWEB-0271             
1 48989U 21060Y   26188.08205336  .00000030  00000+0  43605-4 0  9993
2 48989  87.9078 224.8214 0002017 102.0952 258.0405 13.16593284242285
ONEWEB-0272             
1 48990U 21060Z   26188.02822493  .00000086  00000+0  19229-3 0  9993
2 48990  87.9075 224.8433 0001769  95.2915 264.8418 13.16595525242225
ONEWEB-0273             
1 48991U 21060AA  26187.59440084 -.00000037  00000+0 -12934-3 0  9991
2 48991  87.9081 224.9298 0002106  98.7395 261.3975 13.16593768242147
ONEWEB-0274             
1 48992U 21060AB  26188.07571256  .00000051  00000+0  99607-4 0  9999
2 48992  87.9071 224.8347 0001747  92.9259 267.2072 13.16594405242249
